ORBCOMM FM20            
1 25416U 98046D   24210.51817407  .00001189  00000+0  45841-3 0  9990
2 25416  44.9944 272.2967 0002079 259.4939 100.5674 14.35498975357720
ORBCOMM FM16            
1 25417U 98046E   24210.69817861  .00001592  00000+0  58441-3 0  9992
2 25417  44.9939 266.5879 0001792 144.1057 215.9911 14.36582967357692
ORBCOMM FM15            
1 25418U 98046F   24210.60089522  .00001588  00000+0  58632-3 0  9996
2 25418  44.9973 271.3006 0001685 155.3382 204.7546 14.36291209357688
ORBCOMM FM14            
1 25419U 98046G   24210.61524369  .00001753  00000+0  63988-3 0  9995
2 25419  44.9954 270.2272 0000677 208.3051 151.7760 14.36492109357640
ORBCOMM FM13            
1 25420U 98046H   24210.91132079  .00001606  00000+0  59946-3 0  9999
2 25420  44.9977 274.1668 0002234 105.5061 254.6033 14.35710174356749
ORBCOMM FM21            
1 25475U 98053A   24210.72780521  .00001702  00000+0  63376-3 0  9996
2 25475  45.0105 359.4753 0000786 174.7997 185.2858 14.35604017350737
ORBCOMM FM22            
1 25476U 98053B   24210.88319070  .00002217  00000+0  80106-3 0  9993
2 25476  45.0092 355.6833 0000837  59.2165 300.8765 14.36191182350750
ORBCOMM FM23            
1 25477U 98053C   24210.75336181  .00001594  00000+0  59609-3 0  9993
2 25477  45.0104   1.7518 0000541  82.8331 277.2578 14.35650558350882
